[Satellite]
VERSION=1.1
NAME=STARLINK-4789
NICKNAME=STARLINK-4789
TLE1=1 53868U 22114BC  22291.58334491  .00015714  00000+0  11614-3 0  9996
TLE2=2 53868  53.2159 112.5480 0001330 108.5718 240.7641 15.73206427  5225
STATUS=0
